{"signature":{"version":"1.2","source":"NASA/JPL Horizons API"},"result":"*******************************************************************************
 Revised: April 12, 2021             Mercury                            199 / 1

 PHYSICAL DATA (updated 2024-Mar-04):
  Vol. Mean Radius (km) =  2439.4+-0.1    Density (g cm^-3)     = 5.427
  Mass x10^23 (kg)      =     3.302       Volume (x10^10 km^3)  = 6.085  
  Sidereal rot. period  =    58.6463 d    Sid. rot. rate (rad/s)= 0.00000124001
  Mean solar day        =   175.9421 d    Core radius (km)      = ~1600 
  Geometric Albedo      =     0.106       Surface emissivity    = 0.77+-0.06
  GM (km^3/s^2)         = 22031.86855     Equatorial radius, Re = 2440.53 km
  GM 1-sigma (km^3/s^2) =                 Mass ratio (Sun/plnt) = 6023682
  Mom. of Inertia       =     0.33        Equ. gravity  m/s^2   = 3.701     
  Atmos. pressure (bar) = < 5x10^-15      Max. angular diam.    = 11.0\"   
  Mean Temperature (K)  = 440             Visual mag. V(1,0)    = -0.42 
  Obliquity to orbit[1] =  2.11' +/- 0.1' Hill's sphere rad. Rp = 94.4 
  Sidereal orb. per.    =  0.2408467 y    Mean Orbit vel.  km/s = 47.362 
  Sidereal orb. per.    = 87.969257  d    Escape vel. km/s      =  4.435
                                 Perihelion  Aphelion    Mean
  Solar Constant (W/m^2)         14462       6278        9126
  Maximum Planetary IR (W/m^2)   12700       5500        8000
  Minimum Planetary IR (W/m^2)   6           6           6
*******************************************************************************


*******************************************************************************
Ephemeris / API_USER Sat Sep 20 11:17:55 2025 Pasadena, USA      / Horizons
*******************************************************************************
Target body name: Mercury (199)                   {source: DE441}
Center body name: Earth (399)                     {source: DE441}
Center-site name: BODY CENTER
*******************************************************************************
Start time      : A.D. 1999-Dec-31 00:00:00.0000 TDB
Stop  time      : A.D. 2000-Jan-02 00:00:00.0000 TDB
Step-size       : 60 minutes
*******************************************************************************
Center geodetic : 0.0, 0.0, 0.0                   {E-lon(deg),Lat(deg),Alt(km)}
Center cylindric: 0.0, 0.0, 0.0                   {E-lon(deg),Dxy(km),Dz(km)}
Center radii    : 6378.137, 6378.137, 6356.752 km {Equator_a, b, pole_c}
Output units    : KM-S
Calendar mode   : Mixed Julian/Gregorian
Output type     : GEOMETRIC cartesian states
Output format   : 3 (position, velocity, LT, range, range-rate)
EOP file        : eop.250919.p251216
EOP coverage    : DATA-BASED 1962-JAN-20 TO 2025-SEP-19. PREDICTS-> 2025-DEC-15
Reference frame : Ecliptic of J2000.0
*******************************************************************************
            JDTDB,            Calendar Date (TDB),                      X,                      Y,                      Z,                     VX,                     VY,                     VZ,                     LT,                     RG,                     RR,
**************************************************************************************************************************************************************************************************************************************************************************
$$SOE
2451543.500000000, A.D. 1999-Dec-31 00:00:00.0000, -1.558063643099543E+06, -2.106035109243016E+08, -3.109505804006949E+06,  6.581077090707907E+01, -9.835332689016401E+00, -4.479769871779800E+00,  7.025934849701085E+02,  2.106322278339749E+08,  9.413317784971133E+00,
2451543.541666667, A.D. 1999-Dec-31 01:00:00.0000, -1.321089379751272E+06, -2.106387127141618E+08, -3.125625067051888E+06,  6.584156321771016E+01, -9.721208400427614E+00, -4.475372618928851E+00,  7.027062836254629E+02,  2.106660440201226E+08,  9.373454462516666E+00,
2451543.583333333, A.D. 1999-Dec-31 02:00:00.0000, -1.084004635623306E+06, -2.106735035613230E+08, -3.141728460626796E+06,  6.587214911892514E+01, -9.607031227162233E+00, -4.470953502384169E+00,  7.028186036675592E+02,  2.106997167216254E+08,  9.333604073653017E+00,
2451543.625000000, A.D. 1999-Dec-31 03:00:00.0000, -8.468101537802033E+05, -2.107078832758059E+08, -3.157815906053022E+06,  6.590252861579145E+01, -9.492801394322703E+00, -4.466512539144890E+00,  7.029304452510009E+02,  2.107332459848320E+08,  9.293766500637389E+00,
2451543.666666667, A.D. 1999-Dec-31 04:00:00.0000, -6.095066772695221E+05, -2.107418516684403E+08, -3.173887324712887E+06,  6.593270171270302E+01, -9.378519126518285E+00, -4.462049746104697E+00,  7.030418085289775E+02,  2.107666318556675E+08,  9.253941625603614E+00,
2451543.708333333, A.D. 1999-Dec-31 05:00:00.0000, -3.720949491241947E+05, -2.107754085508638E+08, -3.189942638049379E+06,  6.596266841337830E+01, -9.264184647869893E+00, -4.457565140052075E+00,  7.031526936532616E+02,  2.107998743796323E+08,  9.214129330562116E+00,
2451543.750000000, A.D. 1999-Dec-31 06:00:00.0000, -1.345757123650089E+05, -2.108085537355203E+08, -3.205981767565668E+06,  6.599242872085807E+01, -9.149798182015026E+00, -4.453058737670584E+00,  7.032631007742090E+02,  2.108329736018018E+08,  9.174329497399899E+00,
2451543.791666667, A.D. 1999-Dec-31 07:00:00.0000,  1.030502899970040E+05, -2.108412870356575E+08, -3.222004634824902E+06,  6.602198263750361E+01, -9.035359952112604E+00, -4.448530555539110E+00,  7.033730300407557E+02,  2.108659295668260E+08,  9.134542007880473E+00,
2451543.833333333, A.D. 1999-Dec-31 08:00:00.0000,  3.407823149580620E+05, -2.108736082653259E+08, -3.238011161449626E+06,  6.605133016499467E+01, -8.920870180847892E+00, -4.443980610132130E+00,  7.034824816004174E+02,  2.108987423189289E+08,  9.094766743643831E+00,
2451543.875000000, A.D. 1999-Dec-31 09:00:00.0000,  5.786196195192039E+05, -2.109055172393766E+08, -3.254001269121572E+06,  6.608047130432736E+01, -8.806329090437396E+00, -4.439408917819968E+00,  7.035914555992879E+02,  2.109314119019084E+08,  9.055003586206418E+00,
2451543.916666667, A.D. 1999-Dec-31 10:00:00.0000,  8.165614606838264E+05, -2.109370137734601E+08, -3.269974879581183E+06,  6.610940605581236E+01, -8.691736902633787E+00, -4.434815494869053E+00,  7.036999521820374E+02,  2.109639383591354E+08,  9.015252416961102E+00,
2451543.958333333, A.D. 1999-Dec-31 11:00:00.0000,  1.054607095455211E+06, -2.109680976840243E+08, -3.285931914627269E+06,  6.613813441907286E+01, -8.577093838730814E+00, -4.430200357442191E+00,  7.038079714919110E+02,  2.109963217335539E+08,  8.975513117177149E+00,
2451544.000000000, A.D. 1999-Dec-31 12:00:00.0000,  1.292755780834030E+06, -2.109987687883127E+08, -3.301872296116665E+06,  6.616665639304270E+01, -8.462400119568242E+00, -4.425563521598812E+00,  7.039155136707269E+02,  2.110285620676799E+08,  8.935785568000190E+00,
2451544.041666667, A.D. 1999-Dec-31 13:00:00.0000,  1.531006773815889E+06, -2.110290269043634E+08, -3.317795945963830E+06,  6.619497197596435E+01, -8.347655965536791E+00, -4.420905003295232E+00,  7.040225788588766E+02,  2.110606594036014E+08,  8.896069650452221E+00,
2451544.083333333, A.D. 1999-Dec-31 14:00:00.0000,  1.769359331388805E+06, -2.110588718510067E+08, -3.333702786140472E+06,  6.622308116538714E+01, -8.232861596583088E+00, -4.416224818384918E+00,  7.041291671953206E+02,  2.110926137829781E+08,  8.856365245431551E+00,
2451544.125000000, A.D. 1999-Dec-31 15:00:00.0000,  2.007812710530728E+06, -2.110883034478643E+08, -3.349592738675192E+06,  6.625098395816526E+01, -8.118017232214614E+00, -4.411522982618738E+00,  7.042352788175896E+02,  2.111244252470405E+08,  8.816672233712818E+00,
2451544.166666667, A.D. 1999-Dec-31 16:00:00.0000,  2.246366168207038E+06, -2.111173215153471E+08, -3.365465725653082E+06,  6.627868035045594E+01, -8.003123091504669E+00, -4.406799511645241E+00,  7.043409138617810E+02,  2.111560938365896E+08,  8.776990495946951E+00,
2451544.208333333, A.D. 1999-Dec-31 17:00:00.0000,  2.485018961368006E+06, -2.111459258746539E+08, -3.381321669215426E+06,  6.630617033771765E+01, -7.888179393097346E+00, -4.402054421010893E+00,  7.044460724625591E+02,  2.111876195919967E+08,  8.737319912661144E+00,
2451544.250000000, A.D. 1999-Dec-31 18:00:00.0000,  2.723770346946310E+06, -2.111741163477700E+08, -3.397160491559312E+06,  6.633345391470807E+01, -7.773186355212507E+00, -4.397287726160348E+00,  7.045507547531521E+02,  2.112190025532027E+08,  8.697660364258883E+00,
2451544.291666667, A.D. 1999-Dec-31 19:00:00.0000,  2.962619581854470E+06, -2.112018927574654E+08, -3.412982114937156E+06,  6.636053107548254E+01, -7.658144195650754E+00, -4.392499442436723E+00,  7.046549608653517E+02,  2.112502427597176E+08,  8.658011731019878E+00,
2451544.333333333, A.D. 1999-Dec-31 20:00:00.0000,  3.201565922982369E+06, -2.112292549272936E+08, -3.428786461656496E+06,  6.638740181339203E+01, -7.543053131798436E+00, -4.387689585081828E+00,  7.047586909295109E+02,  2.112813402506204E+08,  8.618373893100097E+00,
2451544.375000000, A.D. 1999-Dec-31 21:00:00.0000,  3.440608627194662E+06, -2.112562026815896E+08, -3.444573454079553E+06,  6.641406612108145E+01, -7.427913380632626E+00, -4.382858169236455E+00,  7.048619450745432E+02,  2.113122950645583E+08,  8.578746730531725E+00,
2451544.416666667, A.D. 1999-Dec-31 22:00:00.0000,  3.679746951328248E+06, -2.112827358454692E+08, -3.460343014622867E+06,  6.644052399048782E+01, -7.312725158726141E+00, -4.378005209940627E+00,  7.049647234279207E+02,  2.113431072397465E+08,  8.539130123223158E+00,
2451544.458333333, A.D. 1999-Dec-31 23:00:00.0000,  3.918980152189732E+06, -2.113088542448270E+08, -3.476095065756917E+06,  6.646677541283856E+01, -7.197488682252526E+00, -4.373130722133863E+00,  7.050670261156723E+02,  2.113737768139676E+08,  8.499523950958990E+00,
